32P/ComasSola,e,9.9207,54.5298,54.6724,4.551918,0.1014875,0.55521670,10.4927,08/02.0/2024,2000,g  6.5,8.0
# From MPEC 2023-J29
33P/Daniel,e,22.2958,66.2833,20.3224,4.095534,0.1189155,0.45244983,347.9773,08/02.0/2024,2000,g 10.0,12.0
# From  9, 314
34D/Gale,e,10.5827,57.8679,218.0417,5.014510,0.0877731,0.75788064,293.8693,08/02.0/2024,2000,g  9.0,4.0
# From  15, 452
35P/Herschel-Rigollet,e,64.937,356.447,29.103,28.5386,0.006465,0.9744132,0.000,03/26.9605/2092,2000,g  9.0,4.0
# From MPEC 2023-RF3
36P/Whipple,e,9.9493,181.8387,201.1764,4.139843,0.1170114,0.26859193,178.0562,08/02.0/2024,2000,g  8.5,6.0
# From MPEC 2024-P23
37P/Forbes,e,8.9474,314.5504,330.0674,3.462974,0.1529432,0.53282459,349.2553,08/02.0/2024,2000,g 10.5,4.8
# From MPEC 2018-S50
38P/Stephan-Oterma,e,18.4001,77.8769,359.5396,11.25382,0.0261068,0.85981276,54.5291,08/02.0/2024,2000,g  3.5,12.0
# From MPEC 2024-AF0
39P/Oterma,e,1.6296,291.1009,110.4583,7.054342,0.0526041,0.18897666,18.8113,08/02.0/2024,2000,g  7.0,6.0
# From MPC100283
40P/Vaisala,e,11.5994,129.4782,51.4305,4.968884,0.0889848,0.63358135,318.5257,08/02.0/2024,2000,g  5.5,12.0
# From MPEC 2023-SQ0
41P/Tuttle-Giacobini-Kresak,e,9.2164,140.9730,62.2361,3.088235,0.1816095,0.65954989,125.0384,08/02.0/2024,2000,g 10.0,16.0
# From MPC 94283
42P/Neujmin,e,3.9888,150.1586,147.1749,4.876945,0.0915129,0.58405697,311.4059,08/02.0/2024,2000,g 13.0,6.0
# From MPEC 2024-P23
43P/Wolf-Harrington,e,9.3343,243.9969,223.9273,4.327159,0.1094964,0.43560025,319.6852,08/02.0/2024,2000,g  8.0,6.0
# From MPEC 2024-F34
44P/Reinmuth,e,5.8964,286.4253,58.0168,3.687718,0.1391770,0.42697066,115.8471,08/02.0/2024,2000,g  8.3,6.0
# From MPEC 2022-O01
45P/Honda-Mrkos-Pajdusakova,e,4.3238,87.6886,327.9390,3.056605,0.1844357,0.81773486,152.6756,08/02.0/2024,2000,g 13.5,8.0
# From MPEC 2024-F91
46P/Wirtanen,e,11.7498,82.1619,356.3192,3.091113,0.1813559,0.65875857,13.5840,08/02.0/2024,2000,g 14.0,6.0
# From MPEC 2023-J29
47P/Ashbrook-Jackson,e,13.0373,356.8953,357.8717,4.119549,0.1178771,0.31846782,306.7326,08/02.0/2024,2000,g  1.0,11.2
# From MPEC 2024-P23
48P/Johnson,e,12.2010,110.0648,216.7725,3.500402,0.1504968,0.42677248,328.0008,08/02.0/2024,2000,g 10.0,6.0
# From MPEC 2024-P23
49P/Arend-Rigaux,e,19.0588,118.7947,332.9403,3.568891,0.1461854,0.59893642,323.2137,08/02.0/2024,2000,g 11.3,4.4
# From MPEC 2024-BE0
50P/Arend,e,19.0976,355.1608,49.3424,4.090119,0.1191517,0.53001874,9.6805,08/02.0/2024,2000,g  9.5,6.0
# From MPEC 2023-J29
51P/Harrington,e,5.4264,83.6595,269.2422,3.705390,0.1381825,0.54304677,92.7123,08/02.0/2024,2000,g 10.0,8.0
# From NK 3014
51P-A/Harrington,e,5.4265,269.2339,83.6483,3.706656,0.1381117,0.54323685,92.3087,08/02.0/2024,2000,g 10.0,8.0
# From MPEC 2023-J29
51P-D/Harrington,e,5.4269,83.6478,269.2603,3.705745,0.1381627,0.54317661,92.6405,08/02.0/2024,2000,g 16.0,8.0
# From MPEC 2023-XP6
52P/Harrington-Abell,e,10.2339,336.7813,139.5763,3.862541,0.1298358,0.54083242,133.9040,08/02.0/2024,2000,g 13.5,6.0
# From MPEC 2023-TM6
53P/VanBiesbroeck,e,6.6036,148.8477,134.3992,5.436888,0.0777461,0.54961559,234.9908,08/02.0/2024,2000,g  7.7,4.8
# From MPC 89011
54P/de Vico-Swift-NEAT,e,6.0643,358.8470,1.9302,3.785646,0.1338117,0.42628616,355.5936,08/02.0/2024,2000,g  9.0,4.0
# From MPC 31070
55P/Tempel-Tuttle,e,162.4965,235.4178,172.4684,10.34523,0.0296206,0.90562905,286.4209,08/02.0/2024,2000,g  9.0,4.0
# From MPEC 2023-TM6
56P/Slaughter-Burnham,e,8.1556,345.9240,44.1688,5.063989,0.0864898,0.50858397,253.2711,08/02.0/2024,2000,g  8.5,6.0
# From MPEC 2024-DC6
57P/duToit-Neujmin-Delporte,e,2.8524,188.7705,115.0746,3.441961,0.1543459,0.50082156,157.4847,08/02.0/2024,2000,g 12.5,6.0
# From MPEC 2024-A43
58P/Jackson-Neujmin,e,13.0959,159.0578,200.5716,4.090025,0.1191558,0.66211886,182.0133,08/02.0/2024,2000,g 15.5,6.0
# From MPEC 2023-A50
59P/Kearns-Kwee,e,9.3519,312.7417,127.6133,4.480558,0.1039216,0.47689877,222.6912,08/02.0/2024,2000,g  7.0,6.0
# From MPEC 2021-F20
60P/Tsuchinshan,e,3.5812,267.4315,216.9411,3.528062,0.1487304,0.53373457,307.5408,08/02.0/2024,2000,g 11.5,6.0
# From MPEC 2024-JU4
61P/Shajn-Schaldach,e,5.9986,162.9640,221.6766,3.689480,0.1390773,0.42344064,90.1662,08/02.0/2024,2000,g  6.0,10.0
# From MPEC 2024-O39
62P/Tsuchinshan,e,4.7375,68.6663,47.3124,3.369917,0.1593218,0.62461670,35.1892,08/02.0/2024,2000,g  8.0,10.0
# From MPC 84320
63P/Wild,e,19.6440,357.8528,168.8525,5.637323,0.0736368,0.65049460,308.1892,08/02.0/2024,2000,g 10.5,6.0
# From MPEC 2024-A43
64P/Swift-Gehrels,e,8.9518,299.8066,97.2944,4.452217,0.1049155,0.68868566,219.7836,08/02.0/2024,2000,g  9.5,12.0
# From MPEC 2024-P23
65P/Gunn,e,9.1759,61.9765,213.7304,3.891467,0.1283908,0.24812484,319.0793,08/02.0/2024,2000,g  5.0,6.0
# From MPEC 2021-F20
66P/duToit,e,18.6421,21.8066,257.4452,6.070756,0.0658931,0.78512128,149.6386,08/02.0/2024,2000,g 15.0,4.0
# From MPEC 2024-C04
67P/Churyumov-Gerasimenko,e,3.8704,36.3265,22.1825,3.458259,0.1532561,0.64998903,153.7923,08/02.0/2024,2000,g 11.0,4.0
# From MPEC 2023-HD1
68P/Klemola,e,11.1051,175.0742,153.2560,4.962328,0.0891612,0.63623106,154.1911,08/02.0/2024,2000,g 12.6,4.0
# From MPEC 2024-C04
69P/Taylor,e,22.0596,104.8060,343.4440,3.881992,0.1288612,0.41456016,252.7511,08/02.0/2024,2000,g  9.5,12.0
# From MPEC 2023-VM5
70P/Kojima,e,6.6012,119.2373,1.7767,3.676080,0.1398385,0.45449056,140.1864,08/02.0/2024,2000,g 11.0,6.0
# From MPEC 2024-A43
71P/Clark,e,9.4345,59.3858,209.5116,3.151593,0.1761606,0.49349163,98.0443,08/02.0/2024,2000,g  9.8,6.0
# From MPEC 2023-VM5
72P/Denning-Fujikawa,e,10.9478,26.7038,346.7411,4.307235,0.1102570,0.81855548,45.5654,08/02.0/2024,2000,g 17.5,10.0
# From MPEC 2023-RF3
73P/Schwassmann-Wachmann,e,11.3258,69.5211,199.1646,3.079803,0.1823559,0.69238637,128.3449,08/02.0/2024,2000,g 11.5,6.0
# From NK 1613
73P-B/Schwassmann-Wachmann B,e,11.1178,198.7227,69.9738,3.083536,0.1820247,0.69135988,127.5180,08/02.0/2024,2000,g  9.0,4.0
# From NK 2710
73P-C/Schwassmann-Wachmann,e,11.1170,198.7839,69.9433,3.082290,0.1821351,0.69103745,128.3452,08/02.0/2024,2000,g  9.0,4.0
# From NK 934
73P-E/Schwassmann-Wachmann,e,11.1148,198.6418,70.0325,3.087158,0.1817046,0.69199365,125.6766,08/02.0/2024,2000,g  9.0,4.0
# From MPC 56796
73P-G/Schwassmann-Wachmann,e,11.388,69.909,198.772,3.06230,0.183922,0.6933024,359.982,06/08.0/2006,2000,g  9.0,4.0
# From MPC 56796
73P-H/Schwassmann-Wachmann,e,11.389,69.903,198.778,3.06223,0.183927,0.6933024,359.948,06/08.0/2006,2000,g  9.0,4.0
# From MPC 56796
73P-J/Schwassmann-Wachmann,e,11.386,69.983,198.673,3.06380,0.183786,0.6933024,359.974,06/08.0/2006,2000,g  9.0,4.0
# From MPC 56797
73P-K/Schwassmann-Wachmann,e,11.390,69.881,198.809,3.06176,0.183970,0.6933024,359.959,06/08.0/2006,2000,g  9.0,4.0
# From MPC 56797
73P-L/Schwassmann-Wachmann,e,11.388,69.911,198.772,3.06211,0.183938,0.6933024,359.937,06/08.0/2006,2000,g  9.0,4.0
# From MPC 56797
73P-M/Schwassmann-Wachmann,e,11.389,69.895,198.787,3.06205,0.183944,0.6933024,359.952,06/08.0/2006,2000,g  9.0,4.0
# From MPC 56797
73P-N/Schwassmann-Wachmann,e,11.389,69.909,198.754,3.06231,0.183921,0.6933024,359.952,06/08.0/2006,2000,g  9.0,4.0
# From MPC 56797
73P-P/Schwassmann-Wachmann,e,11.390,69.900,198.783,3.06222,0.183929,0.6933024,359.839,06/07.0/2006,2000,g  9.0,4.0
# From MPC 56797
73P-Q/Schwassmann-Wachmann,e,11.387,69.944,198.717,3.06298,0.183860,0.6933024,359.867,06/07.0/2006,2000,g  9.0,4.0
# From MPC 56797
73P-R/Schwassmann-Wachmann,e,11.388,69.904,198.776,3.06224,0.183927,0.6933024,359.966,06/08.0/2006,2000,g  9.0,4.0
# From MPC 56797
73P-S/Schwassmann-Wachmann,e,11.127,77.364,188.229,3.22719,0.170007,0.6933024,359.883,06/08.0/2006,2000,g  9.0,4.0
# From MPEC 2023-J29
73P-T/Schwassmann-Wachmann,e,11.3289,69.5270,199.1459,3.078577,0.1824648,0.69225554,128.6451,08/02.0/2024,2000,g  9.0,4.0
# From MPC 56797
73P-U/Schwassmann-Wachmann,e,11.384,69.994,198.659,3.06366,0.183799,0.6933024,359.997,06/09.0/2006,2000,g  9.0,4.0
# From MPC 56797
73P-V/Schwassmann-Wachmann,e,11.651,65.236,204.943,2.97417,0.192156,0.6933024,359.908,06/08.0/2006,2000,g  9.0,4.0
# From MPC 56797
73P-W/Schwassmann-Wachmann,e,11.390,69.884,198.803,3.06185,0.183962,0.6933024,359.908,06/08.0/2006,2000,g  9.0,4.0
# From MPC 56798
73P-X/Schwassmann-Wachmann,e,11.388,69.900,198.778,3.06207,0.183942,0.6933024,359.896,06/08.0/2006,2000,g  9.0,4.0
# From MPC 56798
73P-Y/Schwassmann-Wachmann,e,11.391,69.879,198.785,3.06200,0.183948,0.6933024,359.858,06/08.0/2006,2000,g  9.0,4.0
# From MPC 56798
73P-Z/Schwassmann-Wachmann,e,11.349,70.493,198.017,3.07155,0.183091,0.6933024,359.943,06/08.0/2006,2000,g  9.0,4.0
# From MPC 56798
73P-AA/Schwassmann-Wachmann,e,11.390,69.883,198.804,3.06182,0.183965,0.6933024,359.984,06/09.0/2006,2000,g  9.0,4.0
# From MPC 56798
73P-AB/Schwassmann-Wachmann,e,11.390,69.888,198.792,3.06183,0.183964,0.6933024,359.872,06/08.0/2006,2000,g  9.0,4.0
# From MPC 56798
73P-AC/Schwassmann-Wachmann,e,11.387,69.914,198.766,3.06223,0.183927,0.6933024,359.872,06/08.0/2006,2000,g  9.0,4.0
# From MPC 56798
73P-AD/Schwassmann-Wachmann,e,11.355,70.416,198.119,3.07035,0.183198,0.6933024,359.873,06/08.0/2006,2000,g  9.0,4.0
# From MPC 56798
73P-AE/Schwassmann-Wachmann,e,11.390,69.891,198.790,3.06196,0.183952,0.6933024,359.935,06/08.0/2006,2000,g  9.0,4.0
# From MPC 56798
73P-AF/Schwassmann-Wachmann,e,11.356,70.302,198.217,3.06961,0.183265,0.6933024,359.846,06/06.0/2006,2000,g  9.0,4.0
# From MPC 56798
73P-AG/Schwassmann-Wachmann,e,11.386,69.932,198.724,3.06233,0.183919,0.6933024,359.997,06/09.0/2006,2000,g  9.0,4.0
# From MPC 56798
73P-AH/Schwassmann-Wachmann,e,11.331,70.695,197.755,3.07445,0.182832,0.6933024,359.885,06/08.0/2006,2000,g  9.0,4.0
# From MPC 56798
73P-AI/Schwassmann-Wachmann,e,11.392,69.885,198.806,3.06205,0.183944,0.6933024,359.864,06/08.0/2006,2000,g  9.0,4.0
# From MPC 56799
73P-AJ/Schwassmann-Wachmann,e,11.385,70.041,198.663,3.06262,0.183892,0.6933024,359.864,06/08.0/2006,2000,g  9.0,4.0
# From MPC 56799
